[{"OBJECT_NAME":"STARLINK-5878","OBJECT_ID":"2023-037AT","EPOCH":"2026-02-04T06:03:15.859296","MEAN_MOTION":14.98330057,"ECCENTRICITY":0.00027923,"INCLINATION":70.0019,"RA_OF_ASC_NODE":348.8021,"ARG_OF_PERICENTER":273.1624,"MEAN_ANOMALY":86.9216,"EPHEMERIS_TYPE":0,"CLASSIFICATION_TYPE":"U","NORAD_CAT_ID":55955,"ELEMENT_SET_NO":999,"REV_AT_EPOCH":15946,"BSTAR":1.5959406e-5,"MEAN_MOTION_DOT":9.7e-7,"MEAN_MOTION_DDOT":0},{"OBJECT_NAME":"STARLINK-5883","OBJECT_ID":"2023-037AU","EPOCH":"2026-02-04T07:03:19.812384","MEAN_MOTION":14.98335024,"ECCENTRICITY":0.00022143,"INCLINATION":70.0056,"RA_OF_ASC_NODE":348.5479,"ARG_OF_PERICENTER":272.3202,"MEAN_ANOMALY":87.7703,"EPHEMERIS_TYPE":0,"CLASSIFICATION_TYPE":"U","NORAD_CAT_ID":55956,"ELEMENT_SET_NO":999,"REV_AT_EPOCH":15947,"BSTAR":7.0235236e-5,"MEAN_MOTION_DOT":7.45e-6,"MEAN_MOTION_DDOT":0},{"OBJECT_NAME":"STARLINK-5884","OBJECT_ID":"2023-037AV","EPOCH":"2026-02-04T06:09:17.868384","MEAN_MOTION":14.98325682,"ECCENTRICITY":0.00027502,"INCLINATION":70.0015,"RA_OF_ASC_NODE":348.8169,"ARG_OF_PERICENTER":263.6241,"MEAN_ANOMALY":96.4605,"EPHEMERIS_TYPE":0,"CLASSIFICATION_TYPE":"U","NORAD_CAT_ID":55957,"ELEMENT_SET_NO":999,"REV_AT_EPOCH":15946,"BSTAR":0.00019382222,"MEAN_MOTION_DOT":2.22e-5,"MEAN_MOTION_DDOT":0},{"OBJECT_NAME":"STARLINK-5928","OBJECT_ID":"2023-037AW","EPOCH":"2026-02-04T05:57:15.604992","MEAN_MOTION":14.98322652,"ECCENTRICITY":0.00025119,"INCLINATION":70.0022,"RA_OF_ASC_NODE":348.7866,"ARG_OF_PERICENTER":272.3637,"MEAN_ANOMALY":87.7234,"EPHEMERIS_TYPE":0,"CLASSIFICATION_TYPE":"U","NORAD_CAT_ID":55958,"ELEMENT_SET_NO":999,"REV_AT_EPOCH":15946,"BSTAR":0.00016663196,"MEAN_MOTION_DOT":1.895e-5,"MEAN_MOTION_DDOT":0},{"OBJECT_NAME":"STARLINK-5929","OBJECT_ID":"2023-037AX","EPOCH":"2026-02-04T05:51:14.690592","MEAN_MOTION":14.98327854,"ECCENTRICITY":0.00026369,"INCLINATION":70.0016,"RA_OF_ASC_NODE":348.7723,"ARG_OF_PERICENTER":264.4583,"MEAN_ANOMALY":95.6275,"EPHEMERIS_TYPE":0,"CLASSIFICATION_TYPE":"U","NORAD_CAT_ID":55959,"ELEMENT_SET_NO":999,"REV_AT_EPOCH":15946,"BSTAR":-6.52373e-7,"MEAN_MOTION_DOT":-1.01e-6,"MEAN_MOTION_DDOT":0},{"OBJECT_NAME":"STARLINK-5938","OBJECT_ID":"2023-037AY","EPOCH":"2026-02-04T06:09:30.254688","MEAN_MOTION":14.98330236,"ECCENTRICITY":0.00032653,"INCLINATION":70.0007,"RA_OF_ASC_NODE":348.7996,"ARG_OF_PERICENTER":278.9085,"MEAN_ANOMALY":81.1704,"EPHEMERIS_TYPE":0,"CLASSIFICATION_TYPE":"U","NORAD_CAT_ID":55960,"ELEMENT_SET_NO":999,"REV_AT_EPOCH":15946,"BSTAR":2.324445e-6,"MEAN_MOTION_DOT":-6.5e-7,"MEAN_MOTION_DDOT":0},{"OBJECT_NAME":"STARLINK-5933","OBJECT_ID":"2023-037AZ","EPOCH":"2026-02-04T07:09:20.333664","MEAN_MOTION":14.98351464,"ECCENTRICITY":0.00032128,"INCLINATION":70.001,"RA_OF_ASC_NODE":348.5609,"ARG_OF_PERICENTER":268.3224,"MEAN_ANOMALY":91.7567,"EPHEMERIS_TYPE":0,"CLASSIFICATION_TYPE":"U","NORAD_CAT_ID":55961,"ELEMENT_SET_NO":999,"REV_AT_EPOCH":15947,"BSTAR":-0.00035921736,"MEAN_MOTION_DOT":-4.379e-5,"MEAN_MOTION_DDOT":0},{"OBJECT_NAME":"STARLINK-5906","OBJECT_ID":"2023-037BA","EPOCH":"2026-02-04T06:27:18.110304","MEAN_MOTION":14.9833111,"ECCENTRICITY":0.00031633,"INCLINATION":70.0009,"RA_OF_ASC_NODE":348.8556,"ARG_OF_PERICENTER":273.3172,"MEAN_ANOMALY":86.7625,"EPHEMERIS_TYPE":0,"CLASSIFICATION_TYPE":"U","NORAD_CAT_ID":55962,"ELEMENT_SET_NO":999,"REV_AT_EPOCH":15946,"BSTAR":-2.6600809e-5,"MEAN_MOTION_DOT":-4.1e-6,"MEAN_MOTION_DDOT":0},{"OBJECT_NAME":"STARLINK-5924","OBJECT_ID":"2023-037BB","EPOCH":"2026-02-04T05:45:13.957632","MEAN_MOTION":14.9833037,"ECCENTRICITY":0.0002426,"INCLINATION":70.0023,"RA_OF_ASC_NODE":348.7572,"ARG_OF_PERICENTER":272.7709,"MEAN_ANOMALY":87.3172,"EPHEMERIS_TYPE":0,"CLASSIFICATION_TYPE":"U","NORAD_CAT_ID":55963,"ELEMENT_SET_NO":999,"REV_AT_EPOCH":15946,"BSTAR":7.6439873e-5,"MEAN_MOTION_DOT":8.19e-6,"MEAN_MOTION_DDOT":0},{"OBJECT_NAME":"STARLINK-5895","OBJECT_ID":"2023-037BC","EPOCH":"2026-02-04T06:31:33.580416","MEAN_MOTION":15.05896993,"ECCENTRICITY":0.00058775,"INCLINATION":70.0001,"RA_OF_ASC_NODE":346.0129,"ARG_OF_PERICENTER":294.1369,"MEAN_ANOMALY":65.9179,"EPHEMERIS_TYPE":0,"CLASSIFICATION_TYPE":"U","NORAD_CAT_ID":55964,"ELEMENT_SET_NO":999,"REV_AT_EPOCH":15953,"BSTAR":0.0018650441,"MEAN_MOTION_DOT":0.00027177,"MEAN_MOTION_DDOT":0},{"OBJECT_NAME":"STARLINK-5894","OBJECT_ID":"2023-037BD","EPOCH":"2026-02-04T06:57:19.755936","MEAN_MOTION":14.98328215,"ECCENTRICITY":0.0002527,"INCLINATION":70.0023,"RA_OF_ASC_NODE":348.5297,"ARG_OF_PERICENTER":274.207,"MEAN_ANOMALY":85.8801,"EPHEMERIS_TYPE":0,"CLASSIFICATION_TYPE":"U","NORAD_CAT_ID":55965,"ELEMENT_SET_NO":999,"REV_AT_EPOCH":15947,"BSTAR":-5.3184861e-5,"MEAN_MOTION_DOT":-7.27e-6,"MEAN_MOTION_DDOT":0},{"OBJECT_NAME":"STARLINK-5905","OBJECT_ID":"2023-042A","EPOCH":"2026-02-03T21:38:29.620608","MEAN_MOTION":15.02537013,"ECCENTRICITY":9.189e-5,"INCLINATION":43.0025,"RA_OF_ASC_NODE":240.0683,"ARG_OF_PERICENTER":251.8531,"MEAN_ANOMALY":108.2211,"EPHEMERIS_TYPE":0,"CLASSIFICATION_TYPE":"U","NORAD_CAT_ID":55986,"ELEMENT_SET_NO":999,"REV_AT_EPOCH":15864,"BSTAR":4.8434514e-5,"MEAN_MOTION_DOT":4.51e-6,"MEAN_MOTION_DDOT":0},{"OBJECT_NAME":"STARLINK-5915","OBJECT_ID":"2023-042B","EPOCH":"2026-02-03T22:48:39.136608","MEAN_MOTION":15.02534529,"ECCENTRICITY":0.00013079,"INCLINATION":43.0029,"RA_OF_ASC_NODE":239.5666,"ARG_OF_PERICENTER":272.0492,"MEAN_ANOMALY":88.0201,"EPHEMERIS_TYPE":0,"CLASSIFICATION_TYPE":"U","NORAD_CAT_ID":55987,"ELEMENT_SET_NO":999,"REV_AT_EPOCH":15783,"BSTAR":0.00010336506,"MEAN_MOTION_DOT":1.193e-5,"MEAN_MOTION_DDOT":0},{"OBJECT_NAME":"STARLINK-5916","OBJECT_ID":"2023-042C","EPOCH":"2026-02-03T20:42:33.372864","MEAN_MOTION":15.02538165,"ECCENTRICITY":9.704e-5,"INCLINATION":43.0033,"RA_OF_ASC_NODE":239.7822,"ARG_OF_PERICENTER":273.6253,"MEAN_ANOMALY":86.4478,"EPHEMERIS_TYPE":0,"CLASSIFICATION_TYPE":"U","NORAD_CAT_ID":55988,"ELEMENT_SET_NO":999,"REV_AT_EPOCH":15782,"BSTAR":4.663835e-5,"MEAN_MOTION_DOT":4.27e-6,"MEAN_MOTION_DDOT":0},{"OBJECT_NAME":"STARLINK-5947","OBJECT_ID":"2023-042D","EPOCH":"2026-02-04T06:56:52.930464","MEAN_MOTION":15.02536395,"ECCENTRICITY":0.00010891,"INCLINATION":43.0019,"RA_OF_ASC_NODE":237.8167,"ARG_OF_PERICENTER":267.0032,"MEAN_ANOMALY":93.0686,"EPHEMERIS_TYPE":0,"CLASSIFICATION_TYPE":"U","NORAD_CAT_ID":55989,"ELEMENT_SET_NO":999,"REV_AT_EPOCH":15788,"BSTAR":4.3188914e-5,"MEAN_MOTION_DOT":3.8e-6,"MEAN_MOTION_DDOT":0},{"OBJECT_NAME":"STARLINK-5946","OBJECT_ID":"2023-042E","EPOCH":"2026-02-03T23:09:25.628544","MEAN_MOTION":15.02539647,"ECCENTRICITY":0.00012759,"INCLINATION":43.0033,"RA_OF_ASC_NODE":239.6809,"ARG_OF_PERICENTER":268.9807,"MEAN_ANOMALY":91.0889,"EPHEMERIS_TYPE":0,"CLASSIFICATION_TYPE":"U","NORAD_CAT_ID":55990,"ELEMENT_SET_NO":999,"REV_AT_EPOCH":15783,"BSTAR":5.0221399e-5,"MEAN_MOTION_DOT":4.75e-6,"MEAN_MOTION_DDOT":0}]
