STARLINK-5878           
1 55955U 23037AT  26035.25226689  .00000097  00000+0  15959-4 0  9998
2 55955  70.0019 348.8021 0002792 273.1624  86.9216 14.98330057159466
STARLINK-5883           
1 55956U 23037AU  26035.29397931  .00000745  00000+0  70235-4 0  9990
2 55956  70.0056 348.5479 0002214 272.3202  87.7703 14.98335024159474
STARLINK-5884           
1 55957U 23037AV  26035.25645681  .00002220  00000+0  19382-3 0  9990
2 55957  70.0015 348.8169 0002750 263.6241  96.4605 14.98325682159466
STARLINK-5928           
1 55958U 23037AW  26035.24809728  .00001895  00000+0  16663-3 0  9990
2 55958  70.0022 348.7866 0002511 272.3637  87.7234 14.98322652159464
STARLINK-5929           
1 55959U 23037AX  26035.24392003 -.00000101  00000+0 -65237-6 0  9999
2 55959  70.0016 348.7723 0002636 264.4583  95.6275 14.98327854159462
STARLINK-5938           
1 55960U 23037AY  26035.25660017 -.00000065  00000+0  23244-5 0  9994
2 55960  70.0007 348.7996 0003265 278.9085  81.1704 14.98330236159467
STARLINK-5933           
1 55961U 23037AZ  26035.29815201 -.00004379  00000+0 -35922-3 0  9993
2 55961  70.0010 348.5609 0003212 268.3224  91.7567 14.98351464159472
STARLINK-5906           
1 55962U 23037BA  26035.26895961 -.00000410  00000+0 -26601-4 0  9999
2 55962  70.0009 348.8556 0003163 273.3172  86.7625 14.98331110159462
STARLINK-5924           
1 55963U 23037BB  26035.23974488  .00000819  00000+0  76440-4 0  9996
2 55963  70.0023 348.7572 0002426 272.7709  87.3172 14.98330370159467
STARLINK-5895           
1 55964U 23037BC  26035.27191644  .00027177  00000+0  18650-2 0  9999
2 55964  70.0001 346.0129 0005877 294.1369  65.9179 15.05896993159530
STARLINK-5894           
1 55965U 23037BD  26035.28981199 -.00000727  00000+0 -53185-4 0  9991
2 55965  70.0023 348.5297 0002527 274.2070  85.8801 14.98328215159479
STARLINK-5905           
1 55986U 23042A   26034.90173172  .00000451  00000+0  48435-4 0  9996
2 55986  43.0025 240.0683 0000918 251.8531 108.2211 15.02537013158641
STARLINK-5915           
1 55987U 23042B   26034.95045297  .00001193  00000+0  10337-3 0  9991
2 55987  43.0029 239.5666 0001307 272.0492  88.0201 15.02534529157837
STARLINK-5916           
1 55988U 23042C   26034.86288626  .00000427  00000+0  46638-4 0  9990
2 55988  43.0033 239.7822 0000970 273.6253  86.4478 15.02538165157823
STARLINK-5947           
1 55989U 23042D   26035.28950151  .00000380  00000+0  43189-4 0  9993
2 55989  43.0019 237.8167 0001089 267.0032  93.0686 15.02536395157887
STARLINK-5946           
1 55990U 23042E   26034.96487996  .00000475  00000+0  50221-4 0  9991
2 55990  43.0033 239.6809 0001275 268.9807  91.0889 15.02539647157836
